CENTAURI-2              
1 43722U 18096D   23002.20308472  .00098319  00000+0  13423-2 0  9999
2 43722  97.3382  91.6337 0008532  39.8434 320.3447 15.57104845228780
SIRION PATHFINDER-2     
1 43759U 18099B   23002.60082836  .00003380  00000+0  29683-3 0  9999
2 43759  97.5989  68.9890 0012365 319.1965  40.8330 14.97185645222833
CORVUS BC4              
1 43767U 18099K   23002.63417115  .00002714  00000+0  24308-3 0  9992
2 43767  97.5924  67.2332 0010483 324.4866  35.5657 14.96588311222752
MOVE-II                 
1 43780U 18099Y   23002.59817299  .00007041  00000+0  57441-3 0  9991
2 43780  97.6040  70.3621 0010248 335.3772  24.6961 14.99708063222881
SPACEBEE-7              
1 43816U 18099BL  23002.41801068  .00005490  00000+0  45438-3 0  9998
2 43816  97.6076  70.8904 0011478 314.1701  45.8578 14.99239902222444
SPACEBEE-5              
1 43817U 18099BM  23002.45508502  .00019095  00000+0  13207-2 0  9994
2 43817  97.6162  75.4551 0003826 308.8265  51.2620 15.05739663222663
SPACEBEE-6              
1 43818U 18099BN  23002.46500998  .00009450  00000+0  74212-3 0  9995
2 43818  97.6125  72.2992 0015581 321.9638  38.0485 15.01022745222662
SHIELDS 1               
1 43850U 18104B   23002.22003662  .00006576  00000+0  25918-3 0  9993
2 43850  85.0281 280.1669 0010989 249.4619 110.5446 15.25327483224784
STF-1                   
1 43852U 18104D   23002.26704181  .00021010  00000+0  68623-3 0  9993
2 43852  85.0293 279.6224 0008363 261.0186  99.0115 15.31594464224912
ZACUBE-2                
1 43907U 18111AH  23002.54775703  .00014039  00000+0  45988-3 0  9993
2 43907  97.1631 246.8843 0020048  89.6035   5.6329 15.31564075223720
LUME 1                  
1 43908U 18111AJ  23002.79828406  .00016474  00000+0  47912-3 0  9994
2 43908  97.1654 249.5728 0018376  79.6020 280.7294 15.35343855223926
AOBA VELOX-IV           
1 43940U 19003J   23002.54221322  .00055578  00000+0  91649-3 0  9992
2 43940  97.1069  38.9258 0013414 133.1765 227.0612 15.52018367220831
