[
    {
        "OBJECT_NAME": "CENTAURI-2",
        "OBJECT_ID": "2018-096D",
        "EPOCH": "2023-01-02T04:52:26.519808",
        "MEAN_MOTION": 15.57104845,
        "ECCENTRICITY": 0.0008532,
        "INCLINATION": 97.3382,
        "RA_OF_ASC_NODE": 91.6337,
        "ARG_OF_PERICENTER": 39.8434,
        "MEAN_ANOMALY": 320.3447,
        "EPHEMERIS_TYPE": 0,
        "CLASSIFICATION_TYPE": "U",
        "NORAD_CAT_ID": 43722,
        "ELEMENT_SET_NO": 999,
        "REV_AT_EPOCH": 22878,
        "BSTAR": 0.0013423,
        "MEAN_MOTION_DOT": 0.00098319,
        "MEAN_MOTION_DDOT": 0
    },
    {
        "OBJECT_NAME": "SIRION PATHFINDER-2",
        "OBJECT_ID": "2018-099B",
        "EPOCH": "2023-01-02T14:25:11.570304",
        "MEAN_MOTION": 14.97185645,
        "ECCENTRICITY": 0.0012365,
        "INCLINATION": 97.5989,
        "RA_OF_ASC_NODE": 68.989,
        "ARG_OF_PERICENTER": 319.1965,
        "MEAN_ANOMALY": 40.833,
        "EPHEMERIS_TYPE": 0,
        "CLASSIFICATION_TYPE": "U",
        "NORAD_CAT_ID": 43759,
        "ELEMENT_SET_NO": 999,
        "REV_AT_EPOCH": 22283,
        "BSTAR": 0.00029683,
        "MEAN_MOTION_DOT": 3.38e-5,
        "MEAN_MOTION_DDOT": 0
    },
    {
        "OBJECT_NAME": "CORVUS BC4",
        "OBJECT_ID": "2018-099K",
        "EPOCH": "2023-01-02T15:13:12.387360",
        "MEAN_MOTION": 14.96588311,
        "ECCENTRICITY": 0.0010483,
        "INCLINATION": 97.5924,
        "RA_OF_ASC_NODE": 67.2332,
        "ARG_OF_PERICENTER": 324.4866,
        "MEAN_ANOMALY": 35.5657,
        "EPHEMERIS_TYPE": 0,
        "CLASSIFICATION_TYPE": "U",
        "NORAD_CAT_ID": 43767,
        "ELEMENT_SET_NO": 999,
        "REV_AT_EPOCH": 22275,
        "BSTAR": 0.00024308,
        "MEAN_MOTION_DOT": 2.714e-5,
        "MEAN_MOTION_DDOT": 0
    },
    {
        "OBJECT_NAME": "MOVE-II",
        "OBJECT_ID": "2018-099Y",
        "EPOCH": "2023-01-02T14:21:22.146336",
        "MEAN_MOTION": 14.99708063,
        "ECCENTRICITY": 0.0010248,
        "INCLINATION": 97.604,
        "RA_OF_ASC_NODE": 70.3621,
        "ARG_OF_PERICENTER": 335.3772,
        "MEAN_ANOMALY": 24.6961,
        "EPHEMERIS_TYPE": 0,
        "CLASSIFICATION_TYPE": "U",
        "NORAD_CAT_ID": 43780,
        "ELEMENT_SET_NO": 999,
        "REV_AT_EPOCH": 22288,
        "BSTAR": 0.00057441,
        "MEAN_MOTION_DOT": 7.041e-5,
        "MEAN_MOTION_DDOT": 0
    },
    {
        "OBJECT_NAME": "SPACEBEE-7",
        "OBJECT_ID": "2018-099BL",
        "EPOCH": "2023-01-02T10:01:56.122752",
        "MEAN_MOTION": 14.99239902,
        "ECCENTRICITY": 0.0011478,
        "INCLINATION": 97.6076,
        "RA_OF_ASC_NODE": 70.8904,
        "ARG_OF_PERICENTER": 314.1701,
        "MEAN_ANOMALY": 45.8578,
        "EPHEMERIS_TYPE": 0,
        "CLASSIFICATION_TYPE": "U",
        "NORAD_CAT_ID": 43816,
        "ELEMENT_SET_NO": 999,
        "REV_AT_EPOCH": 22244,
        "BSTAR": 0.00045438,
        "MEAN_MOTION_DOT": 5.49e-5,
        "MEAN_MOTION_DDOT": 0
    },
    {
        "OBJECT_NAME": "SPACEBEE-5",
        "OBJECT_ID": "2018-099BM",
        "EPOCH": "2023-01-02T10:55:19.345728",
        "MEAN_MOTION": 15.05739663,
        "ECCENTRICITY": 0.0003826,
        "INCLINATION": 97.6162,
        "RA_OF_ASC_NODE": 75.4551,
        "ARG_OF_PERICENTER": 308.8265,
        "MEAN_ANOMALY": 51.262,
        "EPHEMERIS_TYPE": 0,
        "CLASSIFICATION_TYPE": "U",
        "NORAD_CAT_ID": 43817,
        "ELEMENT_SET_NO": 999,
        "REV_AT_EPOCH": 22266,
        "BSTAR": 0.0013207,
        "MEAN_MOTION_DOT": 0.00019095,
        "MEAN_MOTION_DDOT": 0
    },
    {
        "OBJECT_NAME": "SPACEBEE-6",
        "OBJECT_ID": "2018-099BN",
        "EPOCH": "2023-01-02T11:09:36.862272",
        "MEAN_MOTION": 15.01022745,
        "ECCENTRICITY": 0.0015581,
        "INCLINATION": 97.6125,
        "RA_OF_ASC_NODE": 72.2992,
        "ARG_OF_PERICENTER": 321.9638,
        "MEAN_ANOMALY": 38.0485,
        "EPHEMERIS_TYPE": 0,
        "CLASSIFICATION_TYPE": "U",
        "NORAD_CAT_ID": 43818,
        "ELEMENT_SET_NO": 999,
        "REV_AT_EPOCH": 22266,
        "BSTAR": 0.00074212,
        "MEAN_MOTION_DOT": 9.45e-5,
        "MEAN_MOTION_DDOT": 0
    },
    {
        "OBJECT_NAME": "SHIELDS 1",
        "OBJECT_ID": "2018-104B",
        "EPOCH": "2023-01-02T05:16:51.163968",
        "MEAN_MOTION": 15.25327483,
        "ECCENTRICITY": 0.0010989,
        "INCLINATION": 85.0281,
        "RA_OF_ASC_NODE": 280.1669,
        "ARG_OF_PERICENTER": 249.4619,
        "MEAN_ANOMALY": 110.5446,
        "EPHEMERIS_TYPE": 0,
        "CLASSIFICATION_TYPE": "U",
        "NORAD_CAT_ID": 43850,
        "ELEMENT_SET_NO": 999,
        "REV_AT_EPOCH": 22478,
        "BSTAR": 0.00025918,
        "MEAN_MOTION_DOT": 6.576e-5,
        "MEAN_MOTION_DDOT": 0
    },
    {
        "OBJECT_NAME": "STF-1",
        "OBJECT_ID": "2018-104D",
        "EPOCH": "2023-01-02T06:24:32.412384",
        "MEAN_MOTION": 15.31594464,
        "ECCENTRICITY": 0.0008363,
        "INCLINATION": 85.0293,
        "RA_OF_ASC_NODE": 279.6224,
        "ARG_OF_PERICENTER": 261.0186,
        "MEAN_ANOMALY": 99.0115,
        "EPHEMERIS_TYPE": 0,
        "CLASSIFICATION_TYPE": "U",
        "NORAD_CAT_ID": 43852,
        "ELEMENT_SET_NO": 999,
        "REV_AT_EPOCH": 22491,
        "BSTAR": 0.00068623,
        "MEAN_MOTION_DOT": 0.0002101,
        "MEAN_MOTION_DDOT": 0
    },
    {
        "OBJECT_NAME": "ZACUBE-2",
        "OBJECT_ID": "2018-111AH",
        "EPOCH": "2023-01-02T13:08:46.207392",
        "MEAN_MOTION": 15.31564075,
        "ECCENTRICITY": 0.0020048,
        "INCLINATION": 97.1631,
        "RA_OF_ASC_NODE": 246.8843,
        "ARG_OF_PERICENTER": 89.6035,
        "MEAN_ANOMALY": 5.6329,
        "EPHEMERIS_TYPE": 0,
        "CLASSIFICATION_TYPE": "U",
        "NORAD_CAT_ID": 43907,
        "ELEMENT_SET_NO": 999,
        "REV_AT_EPOCH": 22372,
        "BSTAR": 0.00045988,
        "MEAN_MOTION_DOT": 0.00014039,
        "MEAN_MOTION_DDOT": 0
    },
    {
        "OBJECT_NAME": "LUME 1",
        "OBJECT_ID": "2018-111AJ",
        "EPOCH": "2023-01-02T19:09:31.742784",
        "MEAN_MOTION": 15.35343855,
        "ECCENTRICITY": 0.0018376,
        "INCLINATION": 97.1654,
        "RA_OF_ASC_NODE": 249.5728,
        "ARG_OF_PERICENTER": 79.602,
        "MEAN_ANOMALY": 280.7294,
        "EPHEMERIS_TYPE": 0,
        "CLASSIFICATION_TYPE": "U",
        "NORAD_CAT_ID": 43908,
        "ELEMENT_SET_NO": 999,
        "REV_AT_EPOCH": 22392,
        "BSTAR": 0.00047912,
        "MEAN_MOTION_DOT": 0.00016474,
        "MEAN_MOTION_DDOT": 0
    },
    {
        "OBJECT_NAME": "AOBA VELOX-IV",
        "OBJECT_ID": "2019-003J",
        "EPOCH": "2023-01-02T13:00:47.222208",
        "MEAN_MOTION": 15.52018367,
        "ECCENTRICITY": 0.0013414,
        "INCLINATION": 97.1069,
        "RA_OF_ASC_NODE": 38.9258,
        "ARG_OF_PERICENTER": 133.1765,
        "MEAN_ANOMALY": 227.0612,
        "EPHEMERIS_TYPE": 0,
        "CLASSIFICATION_TYPE": "U",
        "NORAD_CAT_ID": 43940,
        "ELEMENT_SET_NO": 999,
        "REV_AT_EPOCH": 22083,
        "BSTAR": 0.00091649,
        "MEAN_MOTION_DOT": 0.00055578,
        "MEAN_MOTION_DDOT": 0
    }
]